start=new Date('2022-11-01T00:00:00.000Z').valueOf();
sats=[{"TLE_LINE1":"1 47378U 21005AF  22304.86965740  .00025684  00000-0  17423-2 0  9997","ELEMENT_SET_NO":"999","REF_FRAME":"TEME","BSTAR":"0.00174230000000","EPHEMERIS_TYPE":"0","PERIAPSIS":"545.930","ECCENTRICITY":"0.00023720","RCS_SIZE":"LARGE","NORAD_CAT_ID":"47378","DECAY_DATE":null,"RA_OF_ASC_NODE":"120.0591","EPOCH":"2022-10-31T20:52:18.399360","GP_ID":"216615709","MEAN_MOTION_DDOT":"0.0000000000000","MEAN_ELEMENT_THEORY":"SGP4","OBJECT_TYPE":"PAYLOAD","ARG_OF_PERICENTER":"96.2477","FILE":"3639522","SEMIMAJOR_AXIS":"6925.707","SITE":"AFETR","MEAN_ANOMALY":"263.8782","TIME_SYSTEM":"UTC","LAUNCH_DATE":"2021-01-20","APOAPSIS":"549.215","MEAN_MOTION":"15.06282921","CENTER_NAME":"EARTH","OBJECT_NAME":"STARLINK-2098","TLE_LINE2":"2 47378  53.0537 120.0591 0002372  96.2477 263.8782 15.06282921 98998","INCLINATION":"53.0537","MEAN_MOTION_DOT":"0.00025684","OBJECT_ID":"2021-005AF","PERIOD":"95.600","REV_AT_EPOCH":"9899","COUNTRY_CODE":"US","CLASSIFICATION_TYPE":"U"},{"OBJECT_NAME":"STARLINK-2099","TLE_LINE2":"2 47379  53.0534 120.0269 0001538 117.4839 242.6306 15.06399662 98997","INCLINATION":"53.0534","MEAN_MOTION_DOT":"0.00001008","OBJECT_ID":"2021-005AG","PERIOD":"95.592","REV_AT_EPOCH":"9899","COUNTRY_CODE":"US","CLASSIFICATION_TYPE":"U","OBJECT_TYPE":"PAYLOAD","ARG_OF_PERICENTER":"117.4839","FILE":"3639522","SEMIMAJOR_AXIS":"6925.350","SITE":"AFETR","MEAN_ANOMALY":"242.6306","TIME_SYSTEM":"UTC","LAUNCH_DATE":"2021-01-20","APOAPSIS":"548.280","MEAN_MOTION":"15.06399662","CENTER_NAME":"EARTH","RA_OF_ASC_NODE":"120.0269","EPOCH":"2022-10-31T21:02:51.936864","MEAN_MOTION_DDOT":"0.0000000000000","GP_ID":"216616459","MEAN_ELEMENT_THEORY":"SGP4","TLE_LINE1":"1 47379U 21005AG  22304.87699001  .00001008  00000-0  86552-4 0  9998","ELEMENT_SET_NO":"999","BSTAR":"0.00008655200000","REF_FRAME":"TEME","PERIAPSIS":"546.149","EPHEMERIS_TYPE":"0","ECCENTRICITY":"0.00015380","RCS_SIZE":"LARGE","NORAD_CAT_ID":"47379","DECAY_DATE":null},{"ELEMENT_SET_NO":"999","TLE_LINE1":"1 47380U 21005AH  22304.64017538  .00000427  00000-0  47574-4 0  9999","PERIAPSIS":"545.918","EPHEMERIS_TYPE":"0","REF_FRAME":"TEME","BSTAR":"0.00004757400000","ECCENTRICITY":"0.00019190","RCS_SIZE":"LARGE","DECAY_DATE":null,"NORAD_CAT_ID":"47380","RA_OF_ASC_NODE":"131.0781","MEAN_MOTION_DDOT":"0.0000000000000","GP_ID":"216615207","EPOCH":"2022-10-31T15:21:51.152832","MEAN_ELEMENT_THEORY":"SGP4","ARG_OF_PERICENTER":"102.1011","OBJECT_TYPE":"PAYLOAD","SITE":"AFETR","TIME_SYSTEM":"UTC","MEAN_ANOMALY":"258.0193","SEMIMAJOR_AXIS":"6925.382","FILE":"3639522","LAUNCH_DATE":"2021-01-20","MEAN_MOTION":"15.06389232","CENTER_NAME":"EARTH","APOAPSIS":"548.576","OBJECT_NAME":"STARLINK-2100","TLE_LINE2":"2 47380  53.0536 131.0781 0001919 102.1011 258.0193 15.06389232 98827","OBJECT_ID":"2021-005AH","INCLINATION":"53.0536","MEAN_MOTION_DOT":"0.00000427","PERIOD":"95.593","CLASSIFICATION_TYPE":"U","REV_AT_EPOCH":"9882","COUNTRY_CODE":"US"},{"MEAN_ELEMENT_THEORY":"SGP4","EPOCH":"2022-10-31T18:56:09.241440","MEAN_MOTION_DDOT":"0.0000000000000","GP_ID":"216614958","RA_OF_ASC_NODE":"135.4906","DECAY_DATE":null,"NORAD_CAT_ID":"47381","RCS_SIZE":"LARGE","ECCENTRICITY":"0.00012660","REF_FRAME":"TEME","BSTAR":"0.00008738500000","EPHEMERIS_TYPE":"0","PERIAPSIS":"546.340","TLE_LINE1":"1 47381U 21005AJ  22304.78899585  .00001020  00000-0  87385-4 0  9999","ELEMENT_SET_NO":"999","COUNTRY_CODE":"US","REV_AT_EPOCH":"9877","CLASSIFICATION_TYPE":"U","PERIOD":"95.592","MEAN_MOTION_DOT":"0.00001020","INCLINATION":"53.0539","OBJECT_ID":"2021-005AJ","TLE_LINE2":"2 47381  53.0539 135.4906 0001266 109.7332 250.3794 15.06398859 98773","OBJECT_NAME":"STARLINK-2101","APOAPSIS":"548.094","CENTER_NAME":"EARTH","MEAN_MOTION":"15.06398859","LAUNCH_DATE":"2021-01-20","SEMIMAJOR_AXIS":"6925.352","FILE":"3639522","SITE":"AFETR","TIME_SYSTEM":"UTC","MEAN_ANOMALY":"250.3794","ARG_OF_PERICENTER":"109.7332","OBJECT_TYPE":"PAYLOAD"},{"RA_OF_ASC_NODE":"131.1215","MEAN_MOTION_DDOT":"0.0000000000000","GP_ID":"216616209","EPOCH":"2022-10-31T15:11:14.608608","MEAN_ELEMENT_THEORY":"SGP4","ELEMENT_SET_NO":"999","TLE_LINE1":"1 47382U 21005AK  22304.63280797 -.00002489  00000-0 -14827-3 0  9995","PERIAPSIS":"546.334","EPHEMERIS_TYPE":"0","REF_FRAME":"TEME","BSTAR":"-0.00014827000000","ECCENTRICITY":"0.00012770","RCS_SIZE":"LARGE","DECAY_DATE":null,"NORAD_CAT_ID":"47382","OBJECT_NAME":"STARLINK-2102","TLE_LINE2":"2 47382  53.0538 131.1215 0001277 118.5494 241.5624 15.06398369 98813","OBJECT_ID":"2021-005AK","MEAN_MOTION_DOT":"-0.00002489","INCLINATION":"53.0538","PERIOD":"95.592","CLASSIFICATION_TYPE":"U","REV_AT_EPOCH":"9881","COUNTRY_CODE":"US","ARG_OF_PERICENTER":"118.5494","OBJECT_TYPE":"PAYLOAD","SITE":"AFETR","MEAN_ANOMALY":"241.5624","TIME_SYSTEM":"UTC","FILE":"3639522","SEMIMAJOR_AXIS":"6925.354","LAUNCH_DATE":"2021-01-20","MEAN_MOTION":"15.06398369","CENTER_NAME":"EARTH","APOAPSIS":"548.103"},{"MEAN_MOTION_DOT":"-0.00005632","INCLINATION":"53.0529","OBJECT_ID":"2021-005AL","TLE_LINE2":"2 47383  53.0529 121.3301 0001186  91.8459 268.2666 15.06420562 98952","OBJECT_NAME":"STARLINK-2103","COUNTRY_CODE":"US","REV_AT_EPOCH":"9895","CLASSIFICATION_TYPE":"U","PERIOD":"95.591","SEMIMAJOR_AXIS":"6925.286","FILE":"3639522","SITE":"AFETR","MEAN_ANOMALY":"268.2666","TIME_SYSTEM":"UTC","OBJECT_TYPE":"PAYLOAD","ARG_OF_PERICENTER":"91.8459","APOAPSIS":"547.972","CENTER_NAME":"EARTH","MEAN_MOTION":"15.06420562","LAUNCH_DATE":"2021-01-20","EPOCH":"2022-10-31T14:02:10.961376","MEAN_MOTION_DDOT":"0.0000000000000","GP_ID":"216615960","RA_OF_ASC_NODE":"121.3301","MEAN_ELEMENT_THEORY":"SGP4","BSTAR":"-0.00035928000000","REF_FRAME":"TEME","PERIAPSIS":"546.329","EPHEMERIS_TYPE":"0","TLE_LINE1":"1 47383U 21005AL  22304.58484909 -.00005632  00000-0 -35928-3 0  9999","ELEMENT_SET_NO":"999","NORAD_CAT_ID":"47383","DECAY_DATE":null,"RCS_SIZE":"LARGE","ECCENTRICITY":"0.00011860"},{"OBJECT_TYPE":"PAYLOAD","ARG_OF_PERICENTER":"110.6653","FILE":"3639522","SEMIMAJOR_AXIS":"6925.353","SITE":"AFETR","TIME_SYSTEM":"UTC","MEAN_ANOMALY":"249.4465","LAUNCH_DATE":"2021-01-20","APOAPSIS":"548.046","MEAN_MOTION":"15.06398521","CENTER_NAME":"EARTH","OBJECT_NAME":"STARLINK-2104","TLE_LINE2":"2 47384  53.0524 130.5200 0001195 110.6653 249.4465 15.06398521 98849","INCLINATION":"53.0524","MEAN_MOTION_DOT":"-0.00000614","OBJECT_ID":"2021-005AM","PERIOD":"95.592","REV_AT_EPOCH":"9884","COUNTRY_CODE":"US","CLASSIFICATION_TYPE":"U","TLE_LINE1":"1 47384U 21005AM  22304.81712672 -.00000614  00000-0 -22344-4 0  9991","ELEMENT_SET_NO":"999","REF_FRAME":"TEME","BSTAR":"-0.00002234400000","PERIAPSIS":"546.391","EPHEMERIS_TYPE":"0","ECCENTRICITY":"0.00011950","RCS_SIZE":"LARGE","NORAD_CAT_ID":"47384","DECAY_DATE":null,"RA_OF_ASC_NODE":"130.5200","EPOCH":"2022-10-31T19:36:39.748608","GP_ID":"216614708","MEAN_MOTION_DDOT":"0.0000000000000","MEAN_ELEMENT_THEORY":"SGP4"},{"NORAD_CAT_ID":"47385","DECAY_DATE":null,"RCS_SIZE":"LARGE","ECCENTRICITY":"0.00012300","EPHEMERIS_TYPE":"0","PERIAPSIS":"546.342","REF_FRAME":"TEME","BSTAR":"0.00002951300000","ELEMENT_SET_NO":"999","TLE_LINE1":"1 47385U 21005AN  22304.81340778  .00000158  00000-0  29513-4 0  9992","MEAN_ELEMENT_THEORY":"SGP4","GP_ID":"216615458","MEAN_MOTION_DDOT":"0.0000000000000","EPOCH":"2022-10-31T19:31:18.432192","RA_OF_ASC_NODE":"130.3022","CENTER_NAME":"EARTH","MEAN_MOTION":"15.06406285","APOAPSIS":"548.046","LAUNCH_DATE":"2021-01-20","MEAN_ANOMALY":"261.1125","SITE":"AFETR","TIME_SYSTEM":"UTC","SEMIMAJOR_AXIS":"6925.329","FILE":"3639522","ARG_OF_PERICENTER":"99.0003","OBJECT_TYPE":"PAYLOAD","CLASSIFICATION_TYPE":"U","COUNTRY_CODE":"US","REV_AT_EPOCH":"9884","PERIOD":"95.592","OBJECT_ID":"2021-005AN","INCLINATION":"53.0536","MEAN_MOTION_DOT":"0.00000158","TLE_LINE2":"2 47385  53.0536 130.3022 0001230  99.0003 261.1125 15.06406285 98843","OBJECT_NAME":"STARLINK-2105"},{"ECCENTRICITY":"0.00014230","NORAD_CAT_ID":"47386","DECAY_DATE":null,"RCS_SIZE":"LARGE","ELEMENT_SET_NO":"999","TLE_LINE1":"1 47386U 21005AP  22304.77655504  .00002331  00000-0  17534-3 0  9998","EPHEMERIS_TYPE":"0","PERIAPSIS":"546.240","BSTAR":"0.00017534000000","REF_FRAME":"TEME","MEAN_ELEMENT_THEORY":"SGP4","RA_OF_ASC_NODE":"130.4754","GP_ID":"216615710","MEAN_MOTION_DDOT":"0.0000000000000","EPOCH":"2022-10-31T18:38:14.355456","LAUNCH_DATE":"2021-01-20","CENTER_NAME":"EARTH","MEAN_MOTION":"15.06396225","APOAPSIS":"548.211","OBJECT_TYPE":"PAYLOAD","ARG_OF_PERICENTER":"107.3841","SITE":"AFETR","TIME_SYSTEM":"UTC","MEAN_ANOMALY":"252.7304","SEMIMAJOR_AXIS":"6925.360","FILE":"3639522","PERIOD":"95.592","CLASSIFICATION_TYPE":"U","COUNTRY_CODE":"US","REV_AT_EPOCH":"9884","TLE_LINE2":"2 47386  53.0549 130.4754 0001423 107.3841 252.7304 15.06396225 98845","OBJECT_NAME":"STARLINK-2106","OBJECT_ID":"2021-005AP","MEAN_MOTION_DOT":"0.00002331","INCLINATION":"53.0549"},{"TLE_LINE2":"2 47387  53.0545 163.8067 0001418 103.2988 256.8159 15.06396017 98303","OBJECT_NAME":"STARLINK-2108","OBJECT_ID":"2021-005AQ","MEAN_MOTION_DOT":"-0.00000993","INCLINATION":"53.0545","PERIOD":"95.592","CLASSIFICATION_TYPE":"U","COUNTRY_CODE":"US","REV_AT_EPOCH":"9830","OBJECT_TYPE":"PAYLOAD","ARG_OF_PERICENTER":"103.2988","TIME_SYSTEM":"UTC","SITE":"AFETR","MEAN_ANOMALY":"256.8159","SEMIMAJOR_AXIS":"6925.361","FILE":"3638574","LAUNCH_DATE":"2021-01-20","CENTER_NAME":"EARTH","MEAN_MOTION":"15.06396017","APOAPSIS":"548.208","RA_OF_ASC_NODE":"163.8067","GP_ID":"216572156","MEAN_MOTION_DDOT":"0.0000000000000","EPOCH":"2022-10-31T00:47:23.485344","MEAN_ELEMENT_THEORY":"SGP4","ELEMENT_SET_NO":"999","TLE_LINE1":"1 47387U 21005AQ  22304.03291071 -.00000993  00000-0 -47770-4 0  9993","EPHEMERIS_TYPE":"0","PERIAPSIS":"546.244","BSTAR":"-0.00004777000000","REF_FRAME":"TEME","ECCENTRICITY":"0.00014180","DECAY_DATE":null,"NORAD_CAT_ID":"47387","RCS_SIZE":"LARGE"}];
